STARLINK-1233           
1 45214U 20012AN  21083.81035331 -.00001108  00000-0 -55514-4 0  9995
2 45214  53.0569 235.9692 0002585 110.1437 249.9830 15.06385679 62170
STARLINK-1245           
1 45215U 20012AP  21083.80666243  .00001401  00000-0  11295-3 0  9998
2 45215  53.0560 235.9840 0002779 109.7747 250.3541 15.06401063 62115
STARLINK-1254           
1 45216U 20012AQ  21083.83245782  .00000415  00000-0  46775-4 0  9999
2 45216  53.0562 235.8704 0002027 106.7450 253.3761 15.06403917 62027
STARLINK-1271           
1 45217U 20012AR  21083.84722011 -.00000586  00000-0 -20433-4 0  9990
2 45217  53.0561 235.8041 0002554 105.0949 255.0322 15.06394730 62182
STARLINK-1105           
1 45218U 20012AS  21083.79621469  .01811994  23025-2  26345-2 0  9992
2 45218  53.0502 200.8428 0002608 309.3302  50.7499 16.05158640 62689
STARLINK-1187           
1 45219U 20012AT  21083.84536050  .00002633  00000-0  19550-3 0  9998
2 45219  53.0550 215.8161 0001379  86.3293 273.7853 15.06419679 62478
STARLINK-1188           
1 45220U 20012AU  21083.85273734  .00000299  00000-0  38956-4 0  9996
2 45220  53.0560 215.7811 0001857 106.6416 253.4777 15.06404444 62357
STARLINK-1189           
1 45221U 20012AV  21083.71636271 -.00000829  00000-0 -36730-4 0  9990
2 45221  53.0566 216.3864 0001820 102.5448 257.5744 15.06395680 62449
STARLINK-1191           
1 45222U 20012AW  21083.85643037 -.00001053  00000-0 -51793-4 0  9990
2 45222  53.0568 215.7586 0001414 104.9702 255.1444 15.06388748 62464
STARLINK-1212           
1 45223U 20012AX  21083.74583897  .00000718  00000-0  67130-4 0  9993
2 45223  53.0561 216.2586 0001718 103.6342 256.4839 15.06395250 62454
STARLINK-1214           
1 45224U 20012AY  21083.85507557 -.00001274  00000-0 -68297-4 0  9990
2 45224  53.0006 215.7683 0001601 112.3229 247.7929 15.05575018 62356
STARLINK-1215           
1 45225U 20012AZ  21083.69793068 -.00000818  00000-0 -36049-4 0  9990
2 45225  53.0558 216.4754 0001494 145.6532 214.4554 15.06393686 62391
STARLINK-1217           
1 45226U 20012BA  21083.77163756  .00000846  00000-0  75670-4 0  9997
2 45226  53.0561 216.1431 0001853 107.9893 252.1298 15.06401737 62363
STARLINK-1221           
1 45227U 20012BB  21083.79376243 -.00000672  00000-0 -26221-4 0  9994
2 45227  53.0551 216.0472 0001591 124.1263 235.9877 15.06391475 62378
STARLINK-1222           
1 45228U 20012BC  21083.79744525  .00000840  00000-0  75254-4 0  9992
2 45228  53.0561 216.0260 0002092 108.2663 251.8554 15.06408418 62341
STARLINK-1226           
1 45229U 20012BD  21083.76057583  .00001020  00000-0  87376-4 0  9990
2 45229  53.0571 216.1972 0001610 107.2119 252.9046 15.06405491 62340
STARLINK-1227           
1 45230U 20012BE  21083.75690063  .00001206  00000-0  99871-4 0  9996
2 45230  53.0581 216.2155 0001699 115.7710 244.3455 15.06399843 62460
STARLINK-1229           
1 45231U 20012BF  21083.69575902 -.00001009  00000-0 -50040-4 0  9992
2 45231  53.0006 216.4871 0001635 106.2905 253.8263 15.05585701 62327
STARLINK-1235           
1 45232U 20012BG  21083.76796402 -.00000918  00000-0 -42714-4 0  9998
2 45232  53.0562 216.1593 0001637 120.2855 239.8296 15.06393269 62456
STARLINK-1238           
1 45233U 20012BH  21083.81404066 -.00000829  00000-0 -36747-4 0  9997
2 45233  53.0570 235.9533 0002152 113.0339 247.0877 15.06390931 62166
STARLINK-1243           
1 45234U 20012BJ  21083.85273595 -.00003868  00000-0 -24099-3 0  9995
2 45234  53.0569 255.7791 0001883 100.0664 260.0538 15.06383066 61875
STARLINK-1246           
1 45235U 20012BK  21083.83800242  .00000506  00000-0  52883-4 0  9996
2 45235  53.0568 255.8375 0002156 100.5195 259.6037 15.06387320 61923
STARLINK-1247           
1 45236U 20012BL  21083.68686231  .00000769  00000-0  70529-4 0  9998
2 45236  53.0568 216.5151 0001750 112.0842 248.0333 15.06401958 62438
STARLINK-1270           
1 45237U 20012BM  21083.84168133 -.00000956  00000-0 -45263-4 0  9990
2 45237  53.0566 215.8313 0001623 110.0043 250.1121 15.06395125 62469
JCSAT-17                
1 45245U 20013A   21082.07609140 -.00000316  00000-0  00000-0 0  9997
2 45245   6.6079 344.1498 0003859  11.2336 348.7452  1.00270862  4063
GEO-KOMPSAT-2B          
1 45246U 20013B   21083.85396782 -.00000350  00000-0  00000-0 0  9998
2 45246   0.0413  17.5804 0001778  33.1477 207.4861  1.00271420  4104
XJS C                   
1 45249U 20014A   21083.70570074  .00004117  00000-0  14148-3 0  9999
2 45249  35.0145  71.1799 0009504 272.1068 254.4193 15.29492837 61074
XJS D                   
1 45250U 20014B   21083.70562549  .00004186  00000-0  14383-3 0  9996
2 45250  35.0149  71.1948 0009098 272.5049 254.0502 15.29495157 61075
XJS E                   
1 45251U 20014C   21083.70580512  .00003468  00000-0  11944-3 0  9999
2 45251  35.0156  71.1995 0009414 276.0926 250.4241 15.29485526 61036
XJS F                   
1 45253U 20014E   21083.70552935  .00003218  00000-0  11095-3 0  9999
2 45253  35.0142  71.1705 0008960 275.2344 251.3992 15.29487471 61036
MERIDIAN 9              
1 45254U 20015A   21083.49527906  .00000298  00000-0  00000-0 0  9993
2 45254  62.9455 175.7396 6990007 295.2282 144.8701  2.00617394  7983
HARP                    
1 45256U 98067QZ  21083.57245296  .00019755  00000-0  27871-3 0  9991
2 45256  51.6424  31.5837 0005721 322.1407  37.9182 15.56574790 62048
1998-067RA              
1 45257U 98067RA  21083.49964231  .00016346  00000-0  23885-3 0  9994
2 45257  51.6408  32.5607 0006387 325.1204  34.9368 15.55765588 62021
PHOENIX                 
1 45258U 98067RB  21083.58115439  .00014432  00000-0  21825-3 0  9999
2 45258  51.6408  33.0907 0004732 304.8811  55.1735 15.54944669 61997
1998-067RC              
1 45259U 98067RC  21083.27764431  .00027277  00000-0  35726-3 0  9994
2 45259  51.6405  31.0765 0005172 325.4535  34.6121 15.58367225 62023
CRYOCUBE                
1 45260U 98067RD  21083.56529883  .00035374  00000-0  44930-3 0  9992
2 45260  51.6402  29.2491 0005138 328.4810  31.5874 15.59044629 62086
AZTECHSAT-1             
1 45261U 98067RE  21083.83118268  .00037372  00000-0  44599-3 0  9995
2 45261  51.6388  25.7654 0004953 329.4289  30.6415 15.60659316 62142
RADSAT-U                
1 45262U 98067RF  21083.85587576  .00016411  00000-0  23740-3 0  9996
2 45262  51.6427  30.4761 0005813   3.8136 356.2899 15.56041040 62090
QARMAN                  
1 45263U 98067RG  21083.83785966  .00023796  00000-0  31422-3 0  9998
2 45263  51.6403  28.8146 0005094 323.1568  36.9074 15.58232027 62132
SORTIE                  
1 45264U 98067RH  21083.85388096  .00010002  00000-0  16068-3 0  9999
2 45264  51.6425  33.4411 0006666 328.9766  31.0830 15.53670423 62040
BEIDOU-3 G2             
1 45344U 20017A   21083.94908730 -.00000147  00000-0  00000-0 0  9997
2 45344   2.5441 334.0325 0002277  70.6306 199.6498  1.00271737  4118
COSMOS 2545 [GLONASS-M] 
1 45358U 20018A   21083.64396807 -.00000060  00000-0  00000-0 0  9990
2 45358  64.8910  18.8802 0009965 262.0604 287.2785  2.13102782  7946
STARLINK-1279           
1 45360U 20019A   21083.86655910 -.00000755  00000-0 -31777-4 0  9992
2 45360  53.0597 345.7033 0002379  74.9625 285.1627 15.06390143 57205
STARLINK-1301           
1 45361U 20019B   21083.78823341  .00000753  00000-0  69480-4 0  9997
2 45361  53.0579 356.0635 0001726  72.4619 287.6559 15.06391895 57060
STARLINK-1306           
1 45362U 20019C   21083.83431191 -.00001032  00000-0 -50407-4 0  9994
2 45362  53.0601  15.8475 0001605  66.2363 293.8794 15.06391729 56786
STARLINK-1313           
1 45364U 20019E   21083.86287888  .00000915  00000-0  80379-4 0  9999
2 45364  53.0598 345.7203 0002131  73.1758 286.9464 15.06390772 57209
STARLINK-1317           
1 45365U 20019F   21083.82795607  .00000453  00000-0  50282-4 0  9996
2 45365  53.0011 355.8881 0001378  82.9797 277.1348 15.05580555 57052
STARLINK-1262           
1 45366U 20019G   21083.81956040  .00000726  00000-0  67633-4 0  9997
2 45366  53.0599  15.9196 0001571  75.9387 284.1777 15.06397784 56794
STARLINK-1273           
1 45367U 20019H   21083.77535042  .00007516  00000-0  52262-3 0  9993
2 45367  53.0592  16.1141 0001724  68.2536 291.8637 15.06419973 56786
STARLINK-1276           
1 45368U 20019J   21083.81219290  .00001226  00000-0  10118-3 0  9999
2 45368  53.0592  15.9483 0001822  75.7807 284.3384 15.06393470 56796
STARLINK-1277           
1 45369U 20019K   21083.81125056 -.00000307  00000-0 -17310-5 0  9990
2 45369  53.0585  15.9536 0001645  74.3405 285.7765 15.06394307 56798
STARLINK-1281           
1 45370U 20019L   21083.53574329 -.00000021  00000-0  17515-4 0  9990
2 45370  53.0595  17.1898 0001953  70.3719 289.7480 15.06400124 56751
STARLINK-1287           
1 45371U 20019M   21083.83061231  .00000766  00000-0  70354-4 0  9992
2 45371  53.0594  15.8718 0002020  69.9895 290.1311 15.06399375 56790
STARLINK-1288           
1 45372U 20019N   21083.84537307 -.00000794  00000-0 -34442-4 0  9997
2 45372  53.0598  15.8007 0001837  72.6356 287.4834 15.06390432 56798
STARLINK-1295           
1 45373U 20019P   21083.82693250  .00000799  00000-0  72545-4 0  9995
2 45373  53.0593  15.8808 0001783  72.7581 287.3603 15.06396260 56792
STARLINK-1300           
1 45374U 20019Q   21083.29246605  .00001157  00000-0  96586-4 0  9995
2 45374  53.0583  18.2776 0001883  65.7256 294.3929 15.06395402 56713
STARLINK-1302           
1 45375U 20019R   21083.83800166 -.00001339  00000-0 -71025-4 0  9999
2 45375  53.0601  15.8387 0001905  73.8341 286.2858 15.06388868 56793
STARLINK-1304           
1 45376U 20019S   21083.52470008 -.00000227  00000-0  36679-5 0  9995
2 45376  53.0598  17.2360 0002030  74.1100 286.0113 15.06399560 56741
STARLINK-1305           
1 45377U 20019T   21083.81586949  .00000755  00000-0  69593-4 0  9995
2 45377  53.0593  15.9306 0001487  73.3016 286.8137 15.06397898 56795
